{
  "type": "FeatureCollection",
  "name": "roof_surfaces",
  "crs": {
    "type": "name",
    "properties": {
      "name": "urn:ogc:def:crs:EPSG::32629"
    }
  },
  "features": [
    {
      "type": "Feature",
      "properties": {
        "building": "B1000",
        "roof_id": "1"
      },
      "geometry": {
        "type": "Polygon",
        "coordinates": [
          [
            [
              488822.8063365799,
              4287640.7619198775,
              10.0
            ],
            [
              488822.82040059555,
              4287640.9260424,
              10.0
            ],
            [
              488823.9067348438,
              4287657.3274551565,
              10.0
            ],
            [
              488823.85200269095,
              4287657.334745932,
              9.98470401763916
            ],
            [
              488817.663379659,
              4287657.744688867,
              8.46803092956543
            ],
            [
              488817.6569021622,
              4287657.604065229,
              8.46803092956543
            ],
            [
              488816.55517310597,
              4287641.179079843,
              8.46803092956543
            ],
            [
              488816.6099052578,
              4287641.171789065,
              8.481023788452148
            ],
            [
              488822.8063365799,
              4287640.7619198775,
              10.0
            ]
          ]
        ]
      }
    },
    {
      "type": "Feature",
      "properties": {
        "building": "B1000",
        "roof_id": "2"
      },
      "geometry": {
        "type": "Polygon",
        "coordinates": [
          [
            [
              488829.05750012596,
              4287640.3447599,
              8.585329055786133
            ],
            [
              488829.0639776273,
              4287640.48538354,
              8.585329055786133
            ],
            [
              488830.16570673446,
              4287656.910369307,
              8.585329055786133
            ],
            [
              488830.1109006465,
              4287656.9254684,
              8.597492218017578
            ],
            [
              488823.9067348438,
              4287657.3274551565,
              10.0
            ],
            [
              488823.90047915,
              4287657.163406568,
              10.0
            ],
            [
              488822.8063365799,
              4287640.7619198775,
              10.0
            ],
            [
              488822.8688770493,
              4287640.754703034,
              9.985873222351074
            ],
            [
              488829.05750012596,
              4287640.3447599,
              8.585329055786133
            ]
          ]
        ]
      }
    },
    {
      "type": "Feature",
      "properties": {
        "building": "B1001",
        "roof_id": "1"
      },
      "geometry": {
        "type": "Polygon",
        "coordinates": [
          [
            [
              488822.101682818,
              4287657.450926007,
              10.0
            ],
            [
              488822.115820763,
              4287657.607240213,
              10.0
            ],
            [
              488823.0957502762,
              4287672.875338016,
              10.0
            ],
            [
              488823.0488264401,
              4287672.882702724,
              9.989391326904297
            ],
            [
              488818.65744709916,
              4287673.169100751,
              8.938019752502441
            ],
            [
              488818.6510435411,
              4287673.020668796,
              8.938019752502441
            ],
            [
              488817.6635275279,
              4287657.729072234,
              8.938019752502441
            ],
            [
              488817.7103774289,
              4287657.729515839,
              8.947521209716797
            ],
            [
              488822.101682818,
              4287657.450926007,
              10.0
            ]
          ]
        ]
      }
    },
    {
      "type": "Feature",
      "properties": {
        "building": "B1001",
        "roof_id": "2"
      },
      "geometry": {
        "type": "Polygon",
        "coordinates": [
          [
            [
              488826.53991207905,
              4287657.164971457,
              8.991169929504395
            ],
            [
              488826.5463895761,
              4287657.305595097,
              8.991169929504395
            ],
            [
              488827.5260973034,
              4287672.597117977,
              8.991169929504395
            ],
            [
              488827.4870557185,
              4287672.596748303,
              9.000249862670898
            ],
            [
              488823.0957502762,
              4287672.875338016,
              10.0
            ],
            [
              488823.08161233575,
              4287672.719023809,
              10.0
            ],
            [
              488822.101682818,
              4287657.450926007,
              10.0
            ],
            [
              488822.1486066539,
              4287657.443561295,
              9.989921569824219
            ],
            [
              488826.53991207905,
              4287657.164971457,
              8.991169929504395
            ]
          ]
        ]
      }
    },
    {
      "type": "Feature",
      "properties": {
        "building": "B1002",
        "roof_id": "1"
      },
      "geometry": {
        "type": "Polygon",
        "coordinates": [
          [
            [
              488823.0959720802,
              4287672.851913065,
              10.0
            ],
            [
              488823.1023756385,
              4287673.0003450215,
              10.0
            ],
            [
              488824.0126501252,
              4287687.377555408,
              10.0
            ],
            [
              488823.95799190673,
              4287687.377037862,
              9.992783546447754
            ],
            [
              488819.56676041917,
              4287687.647819139,
              9.277815818786621
            ],
            [
              488819.5602089952,
              4287687.515003815,
              9.277815818786621
            ],
            [
              488818.6500084557,
              4287673.129985232,
              9.277815818786621
            ],
            [
              488818.6890500398,
              4287673.1303549055,
              9.284521102905273
            ],
            [
              488823.0959720802,
              4287672.851913065,
              10.0
            ]
          ]
        ]
      }
    },
    {
      "type": "Feature",
      "properties": {
        "building": "B1002",
        "roof_id": "2"
      },
      "geometry": {
        "type": "Polygon",
        "coordinates": [
          [
            [
              488827.5342013589,
              4287672.565958643,
              9.26391315460205
            ],
            [
              488827.5406788521,
              4287672.706582282,
              9.26391315460205
            ],
            [
              488828.4508794205,
              4287687.091601103,
              9.26391315460205
            ],
            [
              488828.4118378356,
              4287687.09123143,
              9.270737648010254
            ],
            [
              488824.0126501252,
              4287687.377555408,
              10.0
            ],
            [
              488823.9985121889,
              4287687.2212411985,
              10.0
            ],
            [
              488823.0959720802,
              4287672.851913065,
              10.0
            ],
            [
              488823.1350136648,
              4287672.852282737,
              9.992644309997559
            ],
            [
              488827.5342013589,
              4287672.565958643,
              9.26391315460205
            ]
          ]
        ]
      }
    },
    {
      "type": "Feature",
      "properties": {
        "building": "B1003",
        "roof_id": "1"
      },
      "geometry": {
        "type": "Polygon",
        "coordinates": [
          [
            [
              488860.7955353063,
              4287722.58529702,
              9.163863182067871
            ],
            [
              488860.7640802304,
              4287722.608426233,
              9.156129837036133
            ],
            [
              488868.8642901143,
              4287736.389951474,
              9.156129837036133
            ],
            [
              488868.94111638505,
              4287736.523432229,
              9.156129837036133
            ],
            [
              488864.45313870866,
              4287720.62082163,
              9.991568565368652
            ],
            [
              488864.40776751074,
              4287720.464211666,
              10.0
            ],
            [
              488860.7955353063,
              4287722.58529702,
              9.163863182067871
            ]
          ]
        ]
      }
    },
    {
      "type": "Feature",
      "properties": {
        "building": "B1003",
        "roof_id": "2"
      },
      "geometry": {
        "type": "Polygon",
        "coordinates": [
          [
            [
              488864.4392225869,
              4287720.441082454,
              9.993792533874512
            ],
            [
              488864.40776751074,
              4287720.464211666,
              10.0
            ],
            [
              488876.12020983436,
              4287732.124651644,
              9.384810447692871
            ],
            [
              488876.2284911845,
              4287732.235003187,
              9.378982543945312
            ],
            [
              488868.1282810821,
              4287718.453477822,
              9.378982543945312
            ],
            [
              488868.051454807,
              4287718.319997071,
              9.378982543945312
            ],
            [
              488864.4392225869,
              4287720.441082454,
              9.993792533874512
            ]
          ]
        ]
      }
    },
    {
      "type": "Feature",
      "properties": {
        "building": "B1003",
        "roof_id": "3"
      },
      "geometry": {
        "type": "Polygon",
        "coordinates": [
          [
            [
              488864.40776751074,
              4287720.464211666,
              11.47054672241211
            ],
            [
              488868.9034056378,
              4287736.382512834,
              8.55461311340332
            ],
            [
              488868.94111638505,
              4287736.523432229,
              8.52945327758789
            ],
            [
              488876.16565496544,
              4287732.273453292,
              8.52945327758789
            ],
            [
              488876.2284911845,
              4287732.235003187,
              8.52945327758789
            ],
            [
              488864.5392520074,
              4287720.598209965,
              11.436909675598145
            ],
            [
              488864.40776751074,
              4287720.464211666,
              11.47054672241211
            ]
          ]
        ]
      }
    },
    {
      "type": "Feature",
      "properties": {
        "building": "B1004",
        "roof_id": "1"
      },
      "geometry": {
        "type": "Polygon",
        "coordinates": [
          [
            [
              488852.7592416246,
              4287709.475952904,
              8.922009468078613
            ],
            [
              488852.7278604848,
              4287709.491273799,
              8.912303924560547
            ],
            [
              488860.97283461085,
              4287722.829055377,
              8.912303924560547
            ],
            [
              488861.0418525664,
              4287722.962462192,
              8.912303924560547
            ],
            [
              488864.5845492699,
              4287720.762628245,
              9.989134788513184
            ],
            [
              488864.6159304107,
              4287720.747307351,
              10.0
            ],
            [
              488856.3786166239,
              4287707.425216285,
              10.0
            ],
            [
              488856.29405596555,
              4287707.283853285,
              10.0
            ],
            [
              488852.7592416246,
              4287709.475952904,
              8.922009468078613
            ]
          ]
        ]
      }
    },
    {
      "type": "Feature",
      "properties": {
        "building": "B1004",
        "roof_id": "2"
      },
      "geometry": {
        "type": "Polygon",
        "coordinates": [
          [
            [
              488859.8603253955,
              4287705.068624426,
              8.970406532287598
            ],
            [
              488859.9371516727,
              4287705.202105174,
              8.970406532287598
            ],
            [
              488868.18212601636,
              4287718.539886863,
              8.970406532287598
            ],
            [
              488868.15074487554,
              4287718.555207757,
              8.979652404785156
            ],
            [
              488864.6159304107,
              4287720.747307351,
              10.0
            ],
            [
              488864.5313697545,
              4287720.605944347,
              10.0
            ],
            [
              488856.29405596555,
              4287707.283853285,
              10.0
            ],
            [
              488856.32543710544,
              4287707.268532391,
              9.989714622497559
            ],
            [
              488859.8603253955,
              4287705.068624426,
              8.970406532287598
            ]
          ]
        ]
      }
    },
    {
      "type": "Feature",
      "properties": {
        "building": "B1005",
        "roof_id": "1"
      },
      "geometry": {
        "type": "Polygon",
        "coordinates": [
          [
            [
              488840.9482779431,
              4287681.8295227615,
              10.0
            ],
            [
              488841.0329864753,
              4287681.95526912,
              10.0
            ],
            [
              488849.1657160459,
              4287694.776592014,
              10.0
            ],
            [
              488849.1264526546,
              4287694.799647291,
              9.992348670959473
            ],
            [
              488845.6539570799,
              4287697.007955076,
              9.234312057495117
            ],
            [
              488845.5770568677,
              4287696.882282651,
              9.234312057495117
            ],
            [
              488837.43659301964,
              4287684.053077555,
              9.234312057495117
            ],
            [
              488837.4757824749,
              4287684.037830594,
              9.241388320922852
            ],
            [
              488840.9482779431,
              4287681.8295227615,
              10.0
            ]
          ]
        ]
      }
    },
    {
      "type": "Feature",
      "properties": {
        "building": "B1005",
        "roof_id": "2"
      },
      "geometry": {
        "type": "Polygon",
        "coordinates": [
          [
            [
              488844.46003681474,
              4287679.598159621,
              9.196525573730469
            ],
            [
              488844.5369370306,
              4287679.723832046,
              9.196525573730469
            ],
            [
              488852.67740109033,
              4287692.553037241,
              9.196525573730469
            ],
            [
              488852.6382116338,
              4287692.5682842005,
              9.203920364379883
            ],
            [
              488849.1657160459,
              4287694.776592014,
              10.0
            ],
            [
              488849.08100751543,
              4287694.650845653,
              10.0
            ],
            [
              488840.9482779431,
              4287681.8295227615,
              10.0
            ],
            [
              488840.9876152682,
              4287681.798659167,
              9.991971969604492
            ],
            [
              488844.46003681474,
              4287679.598159621,
              9.196525573730469
            ]
          ]
        ]
      }
    },
    {
      "type": "Feature",
      "properties": {
        "building": "B1006",
        "roof_id": "1"
      },
      "geometry": {
        "type": "Polygon",
        "coordinates": [
          [
            [
              488848.80449206184,
              4287694.164068322,
              10.0
            ],
            [
              488848.8890527223,
              4287694.3054313185,
              10.0
            ],
            [
              488856.7176725439,
              4287707.904776793,
              10.0
            ],
            [
              488856.67848308664,
              4287707.920023753,
              9.992233276367188
            ],
            [
              488853.1215746222,
              4287709.971351851,
              9.222743034362793
            ],
            [
              488853.05248272937,
              4287709.845753356,
              9.222743034362793
            ],
            [
              488845.21620256355,
              4287696.230717376,
              9.222743034362793
            ],
            [
              488845.2475837025,
              4287696.215396481,
              9.2299165725708
            ],
            [
              488848.80449206184,
              4287694.164068322,
              10.0
            ]
          ]
        ]
      }
    },
    {
      "type": "Feature",
      "properties": {
        "building": "B1006",
        "roof_id": "2"
      },
      "geometry": {
        "type": "Polygon",
        "coordinates": [
          [
            [
              488848.85148983554,
              4287694.148895298,
              9.99205493927002
            ],
            [
              488848.80449206184,
              4287694.164068322,
              10.0
            ],
            [
              488856.63311188563,
              4287707.763413793,
              10.0
            ],
            [
              488856.7176725439,
              4287707.904776793,
              10.0
            ],
            [
              488860.27458102396,
              4287705.8534486685,
              9.212169647216797
            ],
            [
              488860.305962164,
              4287705.838127773,
              9.20484447479248
            ],
            [
              488852.46968179004,
              4287692.22309167,
              9.20484447479248
            ],
            [
              488852.40058989305,
              4287692.097493177,
              9.20484447479248
            ],
            [
              488848.85148983554,
              4287694.148895298,
              9.99205493927002
            ]
          ]
        ]
      }
    },
    {
      "type": "Feature",
      "properties": {
        "building": "B1007",
        "roof_id": "1"
      },
      "geometry": {
        "type": "Polygon",
        "coordinates": [
          [
            [
              488838.4079789288,
              4287737.33539074,
              9.532073020935059
            ],
            [
              488838.5959700248,
              4287737.274698657,
              9.532073020935059
            ],
            [
              488857.9796974761,
              4287730.492596197,
              9.532073020935059
            ],
            [
              488857.98721005145,
              4287730.5239034025,
              9.53653621673584
            ],
            [
              488859.2342073802,
              4287734.081004939,
              10.0
            ],
            [
              488859.03833402443,
              4287734.149431407,
              10.0
            ],
            [
              488839.6624887406,
              4287740.92379937,
              10.0
            ],
            [
              488839.647167849,
              4287740.892418231,
              9.995323181152344
            ],
            [
              488838.4079789288,
              4287737.33539074,
              9.532073020935059
            ]
          ]
        ]
      }
    },
    {
      "type": "Feature",
      "properties": {
        "building": "B1007",
        "roof_id": "2"
      },
      "geometry": {
        "type": "Polygon",
        "coordinates": [
          [
            [
              488840.9094859573,
              4287744.480900811,
              9.436535835266113
            ],
            [
              488840.91707246745,
              4287744.504399698,
              9.431168556213379
            ],
            [
              488860.30072616,
              4287737.730105785,
              9.431168556213379
            ],
            [
              488860.4887172637,
              4287737.669413699,
              9.431168556213379
            ],
            [
              488859.2495282729,
              4287734.11238608,
              9.994315147399902
            ],
            [
              488859.2342073802,
              4287734.081004939,
              10.0
            ],
            [
              488839.8583620903,
              4287740.855372908,
              10.0
            ],
            [
              488839.6624887406,
              4287740.92379937,
              10.0
            ],
            [
              488840.9094859573,
              4287744.480900811,
              9.436535835266113
            ]
          ]
        ]
      }
    },
    {
      "type": "Feature",
      "properties": {
        "building": "B1008",
        "roof_id": "1"
      },
      "geometry": {
        "type": "Polygon",
        "coordinates": [
          [
            [
              488820.5872832976,
              4287702.752311954,
              8.749258041381836
            ],
            [
              488820.54824171326,
              4287702.751942279,
              8.738218307495117
            ],
            [
              488821.52117491624,
              4287717.934074713,
              8.738218307495117
            ],
            [
              488821.53553464956,
              4287718.066963969,
              8.738218307495117
            ],
            [
              488825.92691404186,
              4287717.780566307,
              9.987398147583008
            ],
            [
              488825.96595562657,
              4287717.780935985,
              10.0
            ],
            [
              488824.99280060455,
              4287702.622228377,
              10.0
            ],
            [
              488824.98647098953,
              4287702.465988102,
              10.0
            ],
            [
              488820.5872832976,
              4287702.752311954,
              8.749258041381836
            ]
          ]
        ]
      }
    },
    {
      "type": "Feature",
      "properties": {
        "building": "B1008",
        "roof_id": "2"
      },
      "geometry": {
        "type": "Polygon",
        "coordinates": [
          [
            [
              488829.41689198534,
              4287702.179959987,
              8.842540740966797
            ],
            [
              488829.4312517228,
              4287702.312849247,
              8.842540740966797
            ],
            [
              488830.4041849569,
              4287717.49498193,
              8.842540740966797
            ],
            [
              488830.3651433718,
              4287717.494612252,
              8.852787017822266
            ],
            [
              488825.96595562657,
              4287717.780935985,
              10.0
            ],
            [
              488825.9596260159,
              4287717.624695712,
              10.0
            ],
            [
              488824.98647098953,
              4287702.465988102,
              10.0
            ],
            [
              488825.0255125743,
              4287702.46635778,
              9.988438606262207
            ],
            [
              488829.41689198534,
              4287702.179959987,
              8.842540740966797
            ]
          ]
        ]
      }
    },
    {
      "type": "Feature",
      "properties": {
        "building": "B1009",
        "roof_id": "1"
      },
      "geometry": {
        "type": "Polygon",
        "coordinates": [
          [
            [
              488821.5747241046,
              4287718.051717012,
              9.135712623596191
            ],
            [
              488821.5356085849,
              4287718.059155653,
              9.1277437210083
            ],
            [
              488822.4800437062,
              4287732.952084679,
              9.1277437210083
            ],
            [
              488822.4943295003,
              4287733.092782254,
              9.1277437210083
            ],
            [
              488826.8856349742,
              4287732.814193032,
              9.99128532409668
            ],
            [
              488826.93255881156,
              4287732.806828328,
              10.0
            ],
            [
              488825.98024142475,
              4287717.921633558,
              10.0
            ],
            [
              488825.96602956194,
              4287717.773127669,
              10.0
            ],
            [
              488821.5747241046,
              4287718.051717012,
              9.135712623596191
            ]
          ]
        ]
      }
    },
    {
      "type": "Feature",
      "properties": {
        "building": "B1009",
        "roof_id": "2"
      },
      "geometry": {
        "type": "Polygon",
        "coordinates": [
          [
            [
              488826.01295339887,
              4287717.765762962,
              9.991552352905273
            ],
            [
              488825.96602956194,
              4287717.773127669,
              10.0
            ],
            [
              488826.91834695276,
              4287732.658322435,
              10.0
            ],
            [
              488826.93255881156,
              4287732.806828328,
              10.0
            ],
            [
              488831.32386432134,
              4287732.528239101,
              9.16230297088623
            ],
            [
              488831.3629798421,
              4287732.520800461,
              9.154557228088379
            ],
            [
              488830.4263530076,
              4287717.627945127,
              9.154557228088379
            ],
            [
              488830.4042588923,
              4287717.487173614,
              9.154557228088379
            ],
            [
              488826.01295339887,
              4287717.765762962,
              9.991552352905273
            ]
          ]
        ]
      }
    },
    {
      "type": "Feature",
      "properties": {
        "building": "B1010",
        "roof_id": "1"
      },
      "geometry": {
        "type": "Polygon",
        "coordinates": [
          [
            [
              488827.0106419812,
              4287732.807567685,
              10.0
            ],
            [
              488827.0246320334,
              4287732.979498529,
              10.0
            ],
            [
              488828.11219152366,
              4287750.075925777,
              10.0
            ],
            [
              488828.06534162175,
              4287750.075482163,
              9.988218307495117
            ],
            [
              488823.6036873397,
              4287750.3612141395,
              8.820414543151855
            ],
            [
              488823.5894754858,
              4287750.212708248,
              8.820414543151855
            ],
            [
              488822.50213781715,
              4287733.09285619,
              8.820414543151855
            ],
            [
              488822.5411794018,
              4287733.0932258675,
              8.830831527709961
            ],
            [
              488827.0106419812,
              4287732.807567685,
              10.0
            ]
          ]
        ]
      }
    },
    {
      "type": "Feature",
      "properties": {
        "building": "B1010",
        "roof_id": "2"
      },
      "geometry": {
        "type": "Polygon",
        "coordinates": [
          [
            [
              488831.5191461827,
              4287732.522279172,
              8.958910942077637
            ],
            [
              488831.5333580416,
              4287732.670785068,
              8.958910942077637
            ],
            [
              488832.620695745,
              4287749.790637409,
              8.958910942077637
            ],
            [
              488832.5816541598,
              4287749.79026773,
              8.968247413635254
            ],
            [
              488828.11219152366,
              4287750.075925777,
              10.0
            ],
            [
              488828.09820147685,
              4287749.903994933,
              10.0
            ],
            [
              488827.0106419812,
              4287732.807567685,
              10.0
            ],
            [
              488827.05749188294,
              4287732.808011297,
              9.98960018157959
            ],
            [
              488831.5191461827,
              4287732.522279172,
              8.958910942077637
            ]
          ]
        ]
      }
    },
    {
      "type": "Feature",
      "properties": {
        "building": "B1011",
        "roof_id": "1"
      },
      "geometry": {
        "type": "Polygon",
        "coordinates": [
          [
            [
              488819.6057280686,
              4287687.655997129,
              9.15371322631836
            ],
            [
              488819.5666864842,
              4287687.655627454,
              9.145895004272461
            ],
            [
              488820.5339559113,
              4287702.611244705,
              9.145895004272461
            ],
            [
              488820.5404333964,
              4287702.751868343,
              9.145895004272461
            ],
            [
              488824.939621088,
              4287702.465544493,
              9.991467475891113
            ],
            [
              488824.97866267274,
              4287702.465914169,
              10.0
            ],
            [
              488824.01912761433,
              4287687.518179048,
              10.0
            ],
            [
              488824.0126501252,
              4287687.377555408,
              10.0
            ],
            [
              488819.6057280686,
              4287687.655997129,
              9.15371322631836
            ]
          ]
        ]
      }
    },
    {
      "type": "Feature",
      "properties": {
        "building": "B1011",
        "roof_id": "2"
      },
      "geometry": {
        "type": "Polygon",
        "coordinates": [
          [
            [
              488824.05169170984,
              4287687.377925083,
              9.992252349853516
            ],
            [
              488824.0126501252,
              4287687.377555408,
              10.0
            ],
            [
              488824.9722591226,
              4287702.31748221,
              10.0
            ],
            [
              488824.97866267274,
              4287702.465914169,
              10.0
            ],
            [
              488829.39346703433,
              4287702.179738182,
              9.231827735900879
            ],
            [
              488829.4247003023,
              4287702.180033923,
              9.224669456481934
            ],
            [
              488828.45743084466,
              4287687.224416427,
              9.224669456481934
            ],
            [
              488828.4509533554,
              4287687.083792787,
              9.224669456481934
            ],
            [
              488824.05169170984,
              4287687.377925083,
              9.992252349853516
            ]
          ]
        ]
      }
    }
  ]
}